STARLINK-2534           
1 48311U 21036AM  26068.32574114  .00003677  00000+0  13616-3 0  9990
2 48311  53.1609  90.3234 0001322  82.9471 277.1680 15.30215725268168
YAM-7                   
1 60504U 24149AN  26068.71799904  .00009009  00000+0  30984-3 0  9997
2 60504  97.3828 149.4631 0001973 296.5121  63.5918 15.30304554 86835
